{
  "type": "FeatureCollection",
  "features": [
    {
      "type": "Feature",
      "properties": {
        "norad_id": 41773,
        "name": "SKYSAT-C2",
        "group": "resource",
        "lat": -27.889008217016446,
        "lon": -159.0372088987095,
        "alt_km": 460.5615904178203,
        "timestamp": "2025-12-26T18:39:31.929744+00:00",
        "meta_object_name": "SKYSAT-C2",
        "meta_object_id": "2016-058D",
        "meta_epoch": "2025-12-26T14:37:58.927584",
        "meta_mean_motion": 15.37583734,
        "meta_eccentricity": 0.00025724,
        "meta_inclination": 97.0353,
        "meta_ra_of_asc_node": 24.5495,
        "meta_arg_of_pericenter": 351.2382,
        "meta_mean_anomaly": 8.8818,
        "meta_ephemeris_type": 0,
        "meta_classification_type": "U",
        "meta_norad_cat_id": 41773,
        "meta_element_set_no": 999,
        "meta_rev_at_epoch": 51849,
        "meta_bstar": 0.00034081424,
        "meta_mean_motion_dot": 0.000125,
        "meta_mean_motion_ddot": 0,
        "tle_line1": "1 41773U 16058D   25360.60970981  .00012500  00000+0  34081-3 0  9994",
        "tle_line2": "2 41773  97.0353  24.5495 0002572 351.2382   8.8818 15.37583734518496"
      },
      "geometry": {
        "type": "Point",
        "coordinates": [
          -159.0372088987095,
          -27.889008217016446
        ]
      }
    },
    {
      "type": "Feature",
      "properties": {
        "norad_id": 41774,
        "name": "SKYSAT-C3",
        "group": "resource",
        "lat": 40.180765881678056,
        "lon": 27.977626842145938,
        "alt_km": 428.02571011969485,
        "timestamp": "2025-12-26T18:39:31.929755+00:00",
        "meta_object_name": "SKYSAT-C3",
        "meta_object_id": "2016-058E",
        "meta_epoch": "2025-12-26T13:49:13.464192",
        "meta_mean_motion": 15.44895219,
        "meta_eccentricity": 0.00021451,
        "meta_inclination": 96.9285,
        "meta_ra_of_asc_node": 33.6796,
        "meta_arg_of_pericenter": 106.946,
        "meta_mean_anomaly": 253.2026,
        "meta_ephemeris_type": 0,
        "meta_classification_type": "U",
        "meta_norad_cat_id": 41774,
        "meta_element_set_no": 999,
        "meta_rev_at_epoch": 51939,
        "meta_bstar": 0.00041613584,
        "meta_mean_motion_dot": 0.00019491,
        "meta_mean_motion_ddot": 0,
        "tle_line1": "1 41774U 16058E   25360.57585028  .00019491  00000+0  41614-3 0  9991",
        "tle_line2": "2 41774  96.9285  33.6796 0002145 106.9460 253.2026 15.44895219519391"
      },
      "geometry": {
        "type": "Point",
        "coordinates": [
          27.977626842145938,
          40.180765881678056
        ]
      }
    },
    {
      "type": "Feature",
      "properties": {
        "norad_id": 41785,
        "name": "ALSAT 1B",
        "group": "resource",
        "lat": -18.69229853589928,
        "lon": -170.69074943616945,
        "alt_km": 664.8025071437123,
        "timestamp": "2025-12-26T18:39:31.929764+00:00",
        "meta_object_name": "ALSAT 1B",
        "meta_object_id": "2016-059C",
        "meta_epoch": "2025-12-26T14:29:49.265952",
        "meta_mean_motion": 14.72090241,
        "meta_eccentricity": 0.00107254,
        "meta_inclination": 97.781,
        "meta_ra_of_asc_node": 11.7949,
        "meta_arg_of_pericenter": 64.5407,
        "meta_mean_anomaly": 295.6909,
        "meta_ephemeris_type": 0,
        "meta_classification_type": "U",
        "meta_norad_cat_id": 41785,
        "meta_element_set_no": 999,
        "meta_rev_at_epoch": 49518,
        "meta_bstar": 0.00012301449,
        "meta_mean_motion_dot": 7.27e-06,
        "meta_mean_motion_ddot": 0,
        "tle_line1": "1 41785U 16059C   25360.60404243  .00000727  00000+0  12301-3 0  9990",
        "tle_line2": "2 41785  97.7810  11.7949 0010725  64.5407 295.6909 14.72090241495188"
      },
      "geometry": {
        "type": "Point",
        "coordinates": [
          -170.69074943616945,
          -18.69229853589928
        ]
      }
    },
    {
      "type": "Feature",
      "properties": {
        "norad_id": 41787,
        "name": "PATHFINDER 1",
        "group": "resource",
        "lat": 37.11372060790878,
        "lon": -3.0644682498537277,
        "alt_km": 646.1014528545174,
        "timestamp": "2025-12-26T18:39:31.929775+00:00",
        "meta_object_name": "PATHFINDER 1",
        "meta_object_id": "2016-059E",
        "meta_epoch": "2025-12-26T13:34:46.547328",
        "meta_mean_motion": 14.67345556,
        "meta_eccentricity": 0.00295228,
        "meta_inclination": 97.8139,
        "meta_ra_of_asc_node": 2.6979,
        "meta_arg_of_pericenter": 38.9477,
        "meta_mean_anomaly": 321.3847,
        "meta_ephemeris_type": 0,
        "meta_classification_type": "U",
        "meta_norad_cat_id": 41787,
        "meta_element_set_no": 999,
        "meta_rev_at_epoch": 49439,
        "meta_bstar": 0.00017285752,
        "meta_mean_motion_dot": 9.36e-06,
        "meta_mean_motion_ddot": 0,
        "tle_line1": "1 41787U 16059E   25360.56581652  .00000936  00000+0  17286-3 0  9996",
        "tle_line2": "2 41787  97.8139   2.6979 0029522  38.9477 321.3847 14.67345556494390"
      },
      "geometry": {
        "type": "Point",
        "coordinates": [
          -3.0644682498537277,
          37.11372060790878
        ]
      }
    },
    {
      "type": "Feature",
      "properties": {
        "norad_id": 41790,
        "name": "SCATSAT 1",
        "group": "resource",
        "lat": -75.03023737755943,
        "lon": -154.7625207800737,
        "alt_km": 679.1779979242247,
        "timestamp": "2025-12-26T18:39:31.929785+00:00",
        "meta_object_name": "SCATSAT 1",
        "meta_object_id": "2016-059H",
        "meta_epoch": "2025-12-26T14:15:15.733440",
        "meta_mean_motion": 14.78980653,
        "meta_eccentricity": 0.00564298,
        "meta_inclination": 98.1445,
        "meta_ra_of_asc_node": 57.4361,
        "meta_arg_of_pericenter": 84.3615,
        "meta_mean_anomaly": 276.4027,
        "meta_ephemeris_type": 0,
        "meta_classification_type": "U",
        "meta_norad_cat_id": 41790,
        "meta_element_set_no": 999,
        "meta_rev_at_epoch": 7607,
        "meta_bstar": 0.00021562195,
        "meta_mean_motion_dot": 1.578e-05,
        "meta_mean_motion_ddot": 0,
        "tle_line1": "1 41790U 16059H   25360.59393210  .00001578  00000+0  21562-3 0  9999",
        "tle_line2": "2 41790  98.1445  57.4361 0056429  84.3615 276.4027 14.78980653 76072"
      },
      "geometry": {
        "type": "Point",
        "coordinates": [
          -154.7625207800737,
          -75.03023737755943
        ]
      }
    },
    {
      "type": "Feature",
      "properties": {
        "norad_id": 41875,
        "name": "GOKTURK 1A",
        "group": "resource",
        "lat": -64.58386598737778,
        "lon": 55.420124748492555,
        "alt_km": 692.2384665930049,
        "timestamp": "2025-12-26T18:39:31.929795+00:00",
        "meta_object_name": "GOKTURK 1A",
        "meta_object_id": "2016-073A",
        "meta_epoch": "2025-12-26T15:53:49.144704",
        "meta_mean_motion": 14.62794861,
        "meta_eccentricity": 0.00012806,
        "meta_inclination": 98.1423,
        "meta_ra_of_asc_node": 252.842,
        "meta_arg_of_pericenter": 83.4139,
        "meta_mean_anomaly": 276.7208,
        "meta_ephemeris_type": 0,
        "meta_classification_type": "U",
        "meta_norad_cat_id": 41875,
        "meta_element_set_no": 999,
        "meta_rev_at_epoch": 48360,
        "meta_bstar": 7.2254329e-05,
        "meta_mean_motion_dot": 3.22e-06,
        "meta_mean_motion_ddot": 0,
        "tle_line1": "1 41875U 16073A   25360.66237436  .00000322  00000+0  72254-4 0  9995",
        "tle_line2": "2 41875  98.1423 252.8420 0001280  83.4139 276.7208 14.62794861483607"
      },
      "geometry": {
        "type": "Point",
        "coordinates": [
          55.420124748492555,
          -64.58386598737778
        ]
      }
    },
    {
      "type": "Feature",
      "properties": {
        "norad_id": 41877,
        "name": "RESOURCESAT-2A",
        "group": "resource",
        "lat": 16.614715725403574,
        "lon": 67.90936737164205,
        "alt_km": 821.6430719902701,
        "timestamp": "2025-12-26T18:39:31.929805+00:00",
        "meta_object_name": "RESOURCESAT-2A",
        "meta_object_id": "2016-074A",
        "meta_epoch": "2025-12-26T15:12:05.779008",
        "meta_mean_motion": 14.21605811,
        "meta_eccentricity": 0.0001654,
        "meta_inclination": 98.7734,
        "meta_ra_of_asc_node": 70.4074,
        "meta_arg_of_pericenter": 195.6939,
        "meta_mean_anomaly": 164.4187,
        "meta_ephemeris_type": 0,
        "meta_classification_type": "U",
        "meta_norad_cat_id": 41877,
        "meta_element_set_no": 999,
        "meta_rev_at_epoch": 46978,
        "meta_bstar": 0.00011783358,
        "meta_mean_motion_dot": 2.14e-06,
        "meta_mean_motion_ddot": 0,
        "tle_line1": "1 41877U 16074A   25360.63340022  .00000214  00000+0  11783-3 0  9990",
        "tle_line2": "2 41877  98.7734  70.4074 0001654 195.6939 164.4187 14.21605811469781"
      },
      "geometry": {
        "type": "Point",
        "coordinates": [
          67.90936737164205,
          16.614715725403574
        ]
      }
    }
  ]
}